OBJECT_NAME,OBJECT_ID,EPOCH,MEAN_MOTION,ECCENTRICITY,INCLINATION,RA_OF_ASC_NODE,ARG_OF_PERICENTER,MEAN_ANOMALY,EPHEMERIS_TYPE,CLASSIFICATION_TYPE,NORAD_CAT_ID,ELEMENT_SET_NO,REV_AT_EPOCH,BSTAR,MEAN_MOTION_DOT,MEAN_MOTION_DDOT
FENGYUN 3D,2017-072A,2026-06-27T05:24:21.415968,14.19741329,.0002328,99.0124,152.8290,46.8822,313.2548,0,U,43010,999,44641,.71032E-4,.104E-5,0
NOAA 20 (JPSS-1),2017-073A,2026-06-27T03:37:58.107936,14.19513477,.0000647,98.7773,117.5254,133.2923,226.8307,0,U,43013,999,44588,.45366E-4,.51E-6,0
GOES 17,2018-022A,2026-06-27T04:41:38.568192,1.00272677,.0000713,0.9620,85.5465,25.2624,145.4023,0,U,43226,999,3052,0,-.172E-5,0
SENTINEL-3B,2018-039A,2026-06-27T03:33:20.666304,14.26737400,.0000757,98.6246,245.5374,108.4761,251.6502,0,U,43437,999,42554,.58567E-4,.98E-6,0
FENGYUN 2H,2018-050A,2026-06-27T02:37:02.554176,1.00269779,.00017,3.0571,78.9644,123.0661,191.7900,0,U,43491,999,2953,0,-.12E-5,0
METOP-C,2018-087A,2026-06-27T03:12:08.959392,14.21514604,.0002049,98.6640,237.5551,116.9737,243.1650,0,U,43689,999,39624,.62373E-4,.93E-6,0
GEO-KOMPSAT-2A,2018-100A,2026-06-27T04:33:30.466080,1.00272660,.0002374,0.0439,144.6953,304.3741,22.8763,0,U,43823,999,2773,0,-.332E-5,0
METEOR-M2 2,2019-038A,2026-06-27T05:16:14.958048,14.24369931,.000166,98.9143,165.6531,34.2054,325.9230,0,U,44387,999,36272,.237E-3,.502E-5,0
ARKTIKA-M 1,2021-016A,2026-06-24T11:15:18.372960,2.00620016,.7291,63.2470,56.5720,269.9787,14.5750,0,U,47719,999,3893,0,-.298E-5,0
FENGYUN 3E,2021-062A,2026-06-27T03:18:02.742336,14.19905313,.0002771,98.7493,181.4346,70.6297,289.5179,0,U,49008,999,25799,.10432E-3,.178E-5,0
GOES 18,2022-021A,2026-06-26T22:09:54.396864,1.00273321,.0000647,0.0075,87.6581,38.4096,344.4465,0,U,51850,999,669,0,.108E-5,0
NOAA 21 (JPSS-2),2022-150A,2026-06-27T02:43:23.864160,14.19538154,.0002226,98.7061,116.7360,137.6929,222.4419,0,U,54234,999,18795,.29413E-4,.18E-6,0
METEOSAT-12 (MTG-I1),2022-170C,2026-06-27T03:57:03.959424,1.00275485,.0003658,0.7492,24.5536,71.9230,237.7437,0,U,54743,999,1307,0,.4E-7,0
TIANMU-1 03,2023-039A,2026-06-27T04:52:00.180768,15.47561074,.0003936,97.5229,352.5661,75.2707,284.8978,0,U,55973,999,18238,.31233E-3,.15996E-3,0
TIANMU-1 04,2023-039B,2026-06-27T04:31:14.793024,15.48169734,.0004359,97.5169,351.7053,68.3441,291.8273,0,U,55974,999,18239,.31635E-3,.16552E-3,0
TIANMU-1 05,2023-039C,2026-06-27T04:25:00.558336,15.47485510,.0003928,97.5212,352.1578,90.2639,269.9061,0,U,55975,999,18236,.31273E-3,.15974E-3,0
TIANMU-1 06,2023-039D,2026-06-27T04:37:00.954624,15.48071135,.0004108,97.5221,352.8121,85.5328,274.6391,0,U,55976,999,18239,.31602E-3,.16477E-3,0
FENGYUN 3G,2023-055A,2026-06-27T03:28:48.592704,15.53057762,.0007196,49.9932,294.6976,337.7766,22.2888,0,U,56232,999,18155,.38702E-3,.24305E-3,0
METEOR-M2 3,2023-091A,2026-06-27T05:11:23.129952,14.24047573,.0004836,98.6078,232.9892,130.9114,229.2484,0,U,57166,999,15594,.22775E-4,.9E-7,0
TIANMU-1 07,2023-101A,2026-06-27T04:09:02.510208,15.29919495,.0004349,97.2593,228.6120,101.2533,258.9197,0,U,57399,999,16317,.23712E-3,.6796E-4,0
TIANMU-1 08,2023-101B,2026-06-27T04:55:08.995872,15.29923901,.0005661,97.2581,228.4124,91.2149,268.9740,0,U,57400,999,16317,.229E-3,.6563E-4,0
TIANMU-1 09,2023-101C,2026-06-27T04:30:57.741984,15.29959091,.0004883,97.2539,227.8067,104.7475,255.4307,0,U,57401,999,16317,.23475E-3,.6737E-4,0
TIANMU-1 10,2023-101D,2026-06-27T03:44:38.094144,15.29930643,.0006443,97.2619,228.8359,100.9110,259.2856,0,U,57402,999,16316,.25189E-3,.723E-4,0
FENGYUN 3F,2023-111A,2026-06-27T04:36:01.135584,14.19940664,.0001549,98.6834,248.0139,85.9715,274.1639,0,U,57490,999,15028,.40802E-4,.43E-6,0
ARKTIKA-M 2,2023-198A,2026-06-26T05:35:41.970624,2.00610703,.6904874,63.2200,153.3551,267.3978,18.7558,0,U,58584,999,1850,0,.156E-5,0
TIANMU-1 11,2023-205A,2026-06-27T05:02:57.537024,15.27094226,.0007741,97.3444,199.6100,340.7994,19.2952,0,U,58645,999,13905,.22491E-3,.5908E-4,0
TIANMU-1 12,2023-205B,2026-06-27T07:29:23.106336,15.26992086,.0005579,97.3433,199.4638,320.2359,39.8471,0,U,58646,999,13905,.14962E-3,.3892E-4,0
TIANMU-1 13,2023-205C,2026-06-27T05:08:20.350752,15.26914338,.0005027,97.3460,199.6415,296.8761,63.1964,0,U,58647,999,13903,.23515E-3,.6144E-4,0
TIANMU-1 14,2023-205D,2026-06-27T04:46:36.820992,15.26959190,.0005916,97.3396,198.8006,302.9161,57.1509,0,U,58648,999,13903,.23473E-3,.6142E-4,0
TIANMU-1 19,2023-208A,2026-06-27T05:13:00.373152,15.31719267,.0003438,97.4511,294.5691,279.4263,80.6590,0,U,58660,999,13886,.2847E-3,.8643E-4,0
TIANMU-1 20,2023-208B,2026-06-27T04:22:13.113408,15.32909059,.0005585,97.4452,295.1794,290.0398,70.0243,0,U,58661,999,13895,.2767E-3,.872E-4,0
