FENGYUN 3D              
1 43010U 17072A   26178.22524787  .00000104  00000+0  71032-4 0  9997
2 43010  99.0124 152.8290 0002328  46.8822 313.2548 14.19741329446413
NOAA 20 (JPSS-1)        
1 43013U 17073A   26178.15136699  .00000051  00000+0  45366-4 0  9996
2 43013  98.7773 117.5254 0000647 133.2923 226.8307 14.19513477445888
GOES 17                 
1 43226U 18022A   26178.19558528 -.00000172  00000+0  00000+0 0  9996
2 43226   0.9620  85.5465 0000713  25.2624 145.4023  1.00272677 30522
SENTINEL-3B             
1 43437U 18039A   26178.14815586  .00000098  00000+0  58567-4 0  9995
2 43437  98.6246 245.5374 0000757 108.4761 251.6502 14.26737400425549
FENGYUN 2H              
1 43491U 18050A   26178.10905734 -.00000120  00000+0  00000+0 0  9990
2 43491   3.0571  78.9644 0001700 123.0661 191.7900  1.00269779 29531
METOP-C                 
1 43689U 18087A   26178.13343703  .00000093  00000+0  62373-4 0  9998
2 43689  98.6640 237.5551 0002049 116.9737 243.1650 14.21514604396245
GEO-KOMPSAT-2A          
1 43823U 18100A   26178.18993595 -.00000332  00000+0  00000+0 0  9990
2 43823   0.0439 144.6953 0002374 304.3741  22.8763  1.00272660 27739
METEOR-M2 2             
1 44387U 19038A   26178.21961757  .00000502  00000+0  23700-3 0  9990
2 44387  98.9143 165.6531 0001660  34.2054 325.9230 14.24369931362726
ARKTIKA-M 1             
1 47719U 21016A   26175.46896265 -.00000298  00000+0  00000+0 0  9993
2 47719  63.2470  56.5720 7291000 269.9787  14.5750  2.00620016 38936
FENGYUN 3E              
1 49008U 21062A   26178.13753174  .00000178  00000+0  10432-3 0  9995
2 49008  98.7493 181.4346 0002771  70.6297 289.5179 14.19905313257997
GOES 18                 
1 51850U 22021A   26177.92354626  .00000108  00000+0  00000+0 0  9993
2 51850   0.0075  87.6581 0000647  38.4096 344.4465  1.00273321  6695
NOAA 21 (JPSS-2)        
1 54234U 22150A   26178.11347065  .00000018  00000+0  29413-4 0  9990
2 54234  98.7061 116.7360 0002226 137.6929 222.4419 14.19538154187959
METEOSAT-12 (MTG-I1)    
1 54743U 22170C   26178.16462916  .00000004  00000+0  00000+0 0  9996
2 54743   0.7492  24.5536 0003658  71.9230 237.7437  1.00275485 13072
TIANMU-1 03             
1 55973U 23039A   26178.20277987  .00015996  00000+0  31233-3 0  9996
2 55973  97.5229 352.5661 0003936  75.2707 284.8978 15.47561074182380
TIANMU-1 04             
1 55974U 23039B   26178.18836566  .00016552  00000+0  31635-3 0  9993
2 55974  97.5169 351.7053 0004359  68.3441 291.8273 15.48169734182393
TIANMU-1 05             
1 55975U 23039C   26178.18403424  .00015974  00000+0  31273-3 0  9992
2 55975  97.5212 352.1578 0003928  90.2639 269.9061 15.47485510182364
TIANMU-1 06             
1 55976U 23039D   26178.19237216  .00016477  00000+0  31602-3 0  9993
2 55976  97.5221 352.8121 0004108  85.5328 274.6391 15.48071135182396
FENGYUN 3G              
1 56232U 23055A   26178.14500686  .00024305  00000+0  38702-3 0  9993
2 56232  49.9932 294.6976 0007196 337.7766  22.2888 15.53057762181552
METEOR-M2 3             
1 57166U 23091A   26178.21623993  .00000009  00000+0  22775-4 0  9994
2 57166  98.6078 232.9892 0004836 130.9114 229.2484 14.24047573155942
TIANMU-1 07             
1 57399U 23101A   26178.17294572  .00006796  00000+0  23712-3 0  9996
2 57399  97.2593 228.6120 0004349 101.2533 258.9197 15.29919495163179
TIANMU-1 08             
1 57400U 23101B   26178.20496523  .00006563  00000+0  22900-3 0  9993
2 57400  97.2581 228.4124 0005661  91.2149 268.9740 15.29923901163172
TIANMU-1 09             
1 57401U 23101C   26178.18816831  .00006737  00000+0  23475-3 0  9990
2 57401  97.2539 227.8067 0004883 104.7475 255.4307 15.29959091163171
TIANMU-1 10             
1 57402U 23101D   26178.15599646  .00007230  00000+0  25189-3 0  9993
2 57402  97.2619 228.8359 0006443 100.9110 259.2856 15.29930643163166
FENGYUN 3F              
1 57490U 23111A   26178.19167981  .00000043  00000+0  40802-4 0  9993
2 57490  98.6834 248.0139 0001549  85.9715 274.1639 14.19940664150288
ARKTIKA-M 2             
1 58584U 23198A   26177.23312466  .00000156  00000+0  00000+0 0  9993
2 58584  63.2200 153.3551 6904874 267.3978  18.7558  2.00610703 18505
TIANMU-1 11             
1 58645U 23205A   26178.21038816  .00005908  00000+0  22491-3 0  9995
2 58645  97.3444 199.6100 0007741 340.7994  19.2952 15.27094226139056
TIANMU-1 12             
1 58646U 23205B   26178.31207299  .00003892  00000+0  14962-3 0  9994
2 58646  97.3433 199.4638 0005579 320.2359  39.8471 15.26992086139058
TIANMU-1 13             
1 58647U 23205C   26178.21412443  .00006144  00000+0  23515-3 0  9990
2 58647  97.3460 199.6415 0005027 296.8761  63.1964 15.26914338139036
TIANMU-1 14             
1 58648U 23205D   26178.19903728  .00006142  00000+0  23473-3 0  9990
2 58648  97.3396 198.8006 0005916 302.9161  57.1509 15.26959190139035
TIANMU-1 19             
1 58660U 23208A   26178.21736543  .00008643  00000+0  28470-3 0  9999
2 58660  97.4511 294.5691 0003438 279.4263  80.6590 15.31719267138867
TIANMU-1 20             
1 58661U 23208B   26178.18209622  .00008720  00000+0  27670-3 0  9996
2 58661  97.4452 295.1794 0005585 290.0398  70.0243 15.32909059138955
